[{"OBJECT_NAME":"JILIN-01 KUANFU 02B 6","OBJECT_ID":"2024-169F","EPOCH":"2026-03-09T21:43:38.712288","MEAN_MOTION":15.09238946,"ECCENTRICITY":0.00150747,"INCLINATION":97.5549,"RA_OF_ASC_NODE":159.9459,"ARG_OF_PERICENTER":324.4254,"MEAN_ANOMALY":35.5968,"EPHEMERIS_TYPE":0,"CLASSIFICATION_TYPE":"U","NORAD_CAT_ID":61194,"ELEMENT_SET_NO":999,"REV_AT_EPOCH":8086,"BSTAR":0.00036442477,"MEAN_MOTION_DOT":5.751e-5,"MEAN_MOTION_DDOT":0},{"OBJECT_NAME":"STARLINK-35185","OBJECT_ID":"2025-207S","EPOCH":"2026-03-09T18:24:27.642240","MEAN_MOTION":15.05656967,"ECCENTRICITY":9.238e-5,"INCLINATION":97.5981,"RA_OF_ASC_NODE":138.7482,"ARG_OF_PERICENTER":71.6288,"MEAN_ANOMALY":288.5039,"EPHEMERIS_TYPE":0,"CLASSIFICATION_TYPE":"U","NORAD_CAT_ID":65608,"ELEMENT_SET_NO":999,"REV_AT_EPOCH":2827,"BSTAR":-0.00038613947,"MEAN_MOTION_DOT":-5.629e-5,"MEAN_MOTION_DDOT":0}]
